NORAD_CAT_ID,OBJECT_NAME,OBJECT_TYPE,EPOCH,MEAN_MOTION,ECCENTRICITY,INCLINATION,RA_OF_ASC_NODE,ARG_OF_PERICENTER,MEAN_ANOMALY,BSTAR,MEAN_MOTION_DOT,MEAN_MOTION_DDOT,TLE_LINE0,TLE_LINE1,TLE_LINE2,SEMIMAJOR_AXIS,PERIOD,APOGEE,PERIGEE,DECAYED
53527.0,STARLINK-4511,PAYLOAD,2022-12-27 23:07:15,15.08865128,0.0002251,53.2159,276.2401,49.3116,310.8072,0.00045129,6.906e-05,0.0,0 STARLINK-4511,1 53527U 22101A   22361.96337818  .00006906  00000-0  45129-3 0  9992,2 53527  53.2159 276.2401 0002251  49.3116 310.8072 15.08865128 19875,6917.804,95.436,541.226,538.111,0.0
53527.0,STARLINK-4511,PAYLOAD,2022-12-28 00:42:38,15.08861997,0.0002079,53.216,275.9424,49.6254,310.492,0.00029268,4.376e-05,0.0,0 STARLINK-4511,1 53527U 22101A   22362.02961697  .00004376  00000-0  29268-3 0  9993,2 53527  53.2160 275.9424 0002079  49.6254 310.4920 15.08861997 19881,6917.813,95.436,541.116,538.24,0.0
53527.0,STARLINK-4511,PAYLOAD,2022-12-29 00:33:26,15.08840647,0.0002233,53.2156,271.4839,51.5187,308.6005,-6.927e-05,-1.391e-05,0.0,0 STARLINK-4511,1 53527U 22101A   22363.02322307 -.00001391  00000-0 -69270-4 0  9997,2 53527  53.2156 271.4839 0002233  51.5187 308.6005 15.08840647 20037,6917.878000000002,95.438,541.288,538.1990000000002,0.0
53527.0,STARLINK-4511,PAYLOAD,2022-12-29 11:41:09,15.08824892,0.0001415,53.2165,269.3998,28.4275,331.6794,4.8072e-05,4.77e-06,0.0,0 STARLINK-4511,1 53527U 22101A   22363.48691014  .00000477  00000-0  48072-4 0  9990,2 53527  53.2165 269.3998 0001415  28.4275 331.6794 15.08824892 20104,6917.927,95.439,540.77,538.813,0.0
53527.0,STARLINK-4511,PAYLOAD,2022-12-30 00:24:15,15.08817402,0.0001748,53.2152,267.0217,48.925,311.1892,-0.00020809,-3.596e-05,0.0,0 STARLINK-4511,1 53527U 22101A   22364.01684581 -.00003596  00000-0 -20809-3 0  9995,2 53527  53.2152 267.0217 0001748  48.9250 311.1892 15.08817402 20187,6917.949000000001,95.439,541.024,538.605,0.0
53527.0,STARLINK-4511,PAYLOAD,2022-12-30 03:35:01,15.08818541,0.0001776,53.2152,266.4268,56.6459,303.4703,-0.0002378,-4.068e-05,0.0,0 STARLINK-4511,1 53527U 22101A   22364.14932719 -.00004068  00000-0 -23780-3 0  9994,2 53527  53.2152 266.4268 0001776  56.6459 303.4703 15.08818541 20207,6917.946,95.439,541.04,538.582,0.0
53527.0,STARLINK-4511,PAYLOAD,2022-12-30 17:53:29,15.08829781,0.0002121,53.216,263.7523,45.4387,314.6778,0.00029303,4.377e-05,0.0,0 STARLINK-4511,1 53527U 22101A   22364.74547837  .00004377  00000-0  29303-3 0  9991,2 53527  53.2160 263.7523 0002121  45.4387 314.6778 15.08829781 20294,6917.9119999999975,95.438,541.244,538.309,0.0
53527.0,STARLINK-4511,PAYLOAD,2022-12-31 03:25:47,15.08858197,0.0002070999999999,53.2156,261.9677,44.3296,315.7862,0.00066654,0.00010341,0.0,0 STARLINK-4511,1 53527U 22101A   22365.14291220  .00010341  00000-0  66654-3 0  9996,2 53527  53.2156 261.9677 0002071  44.3296 315.7862 15.08858197 20356,6917.825,95.436,541.122,538.257,0.0
53527.0,STARLINK-4511,PAYLOAD,2022-12-31 09:47:20,15.08857001,0.0002142,53.2147,260.7782,45.7594,314.3573,0.00056835,8.773e-05,0.0,0 STARLINK-4511,1 53527U 22101A   22365.40787075  .00008773  00000-0  56835-3 0  9999,2 53527  53.2147 260.7782 0002142  45.7594 314.3573 15.08857001 20396,6917.828,95.436,541.175,538.212,0.0
53527.0,STARLINK-4511,PAYLOAD,2022-12-31 17:44:15,15.08854053,0.0002016,53.2158,259.2916,61.8045,298.315,0.00044524,6.808e-05,0.0,0 STARLINK-4511,1 53527U 22101A   22365.73907027  .00006808  00000-0  44524-3 0  9995,2 53527  53.2158 259.2916 0002016  61.8045 298.3150 15.08854053 20442,6917.837,95.437,541.097,538.308,0.0
53527.0,STARLINK-4511,PAYLOAD,2023-01-01 03:16:35,15.08832073,0.0002066999999999,53.216,257.5081,41.4677,318.6471,-5.0938e-06,-3.69e-06,0.0,0 STARLINK-4511,1 53527U 22101A   23001.13652110 -.00000369  00000-0 -50938-5 0  9993,2 53527  53.2160 257.5081 0002067  41.4677 318.6471 15.08832073 20507,6917.905,95.438,541.2,538.34,0.0
53527.0,STARLINK-4511,PAYLOAD,2023-01-01 09:38:08,15.0882545,0.0001943,53.2148,256.3174,41.4507,318.6632,-0.00013673,-2.463e-05,0.0,0 STARLINK-4511,1 53527U 22101A   23001.40148474 -.00002463  00000-0 -13673-3 0  9996,2 53527  53.2148 256.3174 0001943  41.4507 318.6632 15.08825450 20541,6917.925,95.438,541.134,538.446,0.0
53527.0,STARLINK-4511,PAYLOAD,2023-01-02 01:32:01,15.08826398,0.0002,53.2158,253.3444,42.6877,317.427,-0.00028764,-4.861e-05,0.0,0 STARLINK-4511,1 53527U 22101A   23002.06390359 -.00004861  00000-0 -28764-3 0  9991,2 53527  53.2158 253.3444 0002000  42.6877 317.4270 15.08826398 20645,6917.922,95.438,541.1709999999998,538.403,0.0
53527.0,STARLINK-4511,PAYLOAD,2023-01-02 09:28:55,15.08844296,0.000196,53.2161,251.8571,41.8991,318.2151,-0.00014211,-2.549e-05,0.0,0 STARLINK-4511,1 53527U 22101A   23002.39508824 -.00002549  00000-0 -14211-3 0  9998,2 53527  53.2161 251.8571 0001960  41.8991 318.2151 15.08844296 20694,6917.8669999999975,95.437,541.0880000000002,538.376,0.0
53527.0,STARLINK-4511,PAYLOAD,2023-01-02 17:25:51,15.08839028,0.000188,53.2163,250.371,45.1248,314.9897,1.5222e-05,-4.6e-07,0.0,0 STARLINK-4511,1 53527U 22101A   23002.72628805 -.00000046  00000-0  15222-4 0  9990,2 53527  53.2163 250.3710 0001880  45.1248 314.9897 15.08839028 20741,6917.8830000000025,95.438,541.049,538.448,0.0
53527.0,STARLINK-4511,PAYLOAD,2023-01-03 02:58:09,15.08840825,0.0002023,53.2154,248.5864,41.4089,318.7056,0.00019827,2.869e-05,0.0,0 STARLINK-4511,1 53527U 22101A   23003.12372397  .00002869  00000-0  19827-3 0  9995,2 53527  53.2154 248.5864 0002023  41.4089 318.7056 15.08840825 20805,6917.878000000002,95.438,541.1419999999998,538.3430000000002,0.0
53527.0,STARLINK-4511,PAYLOAD,2023-01-03 23:38:11,15.0883375,0.0002009999999999,53.2156,244.7201,43.4082,316.7068,0.00031148,4.672e-05,0.0,0 STARLINK-4511,1 53527U 22101A   23003.98485120  .00004672  00000-0  31148-3 0  9992,2 53527  53.2156 244.7201 0002010  43.4082 316.7068 15.08833750 20935,6917.899,95.438,541.155,538.374,0.0
53527.0,STARLINK-4511,PAYLOAD,2023-01-04 09:10:30,15.08828889,0.0002121999999999,53.216,242.9368,43.8327,316.2833,0.0002068,3.004e-05,0.0,0 STARLINK-4511,1 53527U 22101A   23004.38230132  .00003004  00000-0  20680-3 0  9995,2 53527  53.2160 242.9368 0002122  43.8327 316.2833 15.08828889 20992,6917.9140000000025,95.438,541.247,538.311,0.0
53527.0,STARLINK-4511,PAYLOAD,2023-01-04 21:53:34,15.0884549,0.0001895,53.2162,240.558,39.88800000000001,320.2251,8.190899999999999e-05,1.016e-05,0.0,0 STARLINK-4511,1 53527U 22101A   23004.91221048  .00001016  00000-0  81909-4 0  9993,2 53527  53.2162 240.5580 0001895  39.8880 320.2251 15.08845490 21075,6917.864000000001,95.437,541.04,538.418,0.0
53527.0,STARLINK-4511,PAYLOAD,2023-01-05 01:04:20,15.08855737,0.0002171,53.2155,239.9627,37.1093,323.0049,0.00011024,1.467e-05,0.0,0 STARLINK-4511,1 53527U 22101A   23005.04468277  .00001467  00000-0  11024-3 0  9995,2 53527  53.2155 239.9627 0002171  37.1093 323.0049 15.08855737 21099,6917.831999999999,95.437,541.1990000000002,538.195,0.0
53527.0,STARLINK-4511,PAYLOAD,2023-01-05 10:36:38,15.08866864,0.0002265,53.2151,238.1792,47.5664,312.5519,0.00030603,4.589e-05,0.0,0 STARLINK-4511,1 53527U 22101A   23005.44211476  .00004589  00000-0  30603-3 0  9998,2 53527  53.2151 238.1792 0002265  47.5664 312.5519 15.08866864 21157,6917.7980000000025,95.436,541.23,538.096,0.0
53527.0,STARLINK-4511,PAYLOAD,2023-01-05 15:22:48,15.08859322,0.0002061,53.2152,237.2884,45.2859,314.8301,0.00032602,4.907e-05,0.0,0 STARLINK-4511,1 53527U 22101A   23005.64083666  .00004907  00000-0  32602-3 0  9993,2 53527  53.2152 237.2884 0002061  45.2859 314.8301 15.08859322 21183,6917.821,95.436,541.112,538.261,0.0
53527.0,STARLINK-4511,PAYLOAD,2023-01-07 00:45:55,15.08830568,0.0002355,53.2148,231.0428,47.7142,312.4049,-0.00021249,-3.668e-05,0.0,0 STARLINK-4511,1 53527U 22101A   23007.03189390 -.00003668  00000-0 -21249-3 0  9999,2 53527  53.2148 231.0428 0002355  47.7142 312.4049 15.08830568 21399,6917.9090000000015,95.438,541.403,538.145,0.0
53527.0,STARLINK-4511,PAYLOAD,2023-01-07 21:25:56,15.08836085,0.0002189,53.2144,227.1769,45.5532,314.5639,7.4616e-05,8.99e-06,0.0,0 STARLINK-4511,1 53527U 22101A   23007.89301612  .00000899  00000-0  74616-4 0  9994,2 53527  53.2144 227.1769 0002189  45.5532 314.5639 15.08836085 21526,6917.892,95.438,541.2719999999998,538.243,0.0
53527.0,STARLINK-4511,PAYLOAD,2023-01-08 06:58:15,15.08839627,0.0002114,53.2143,225.3923,44.216,315.9001,0.000401,6.1e-05,0.0,0 STARLINK-4511,1 53527U 22101A   23008.29045951  .00006100  00000-0  40100-3 0  9991,2 53527  53.2143 225.3923 0002114  44.2160 315.9001 15.08839627 21587,6917.882,95.438,541.2090000000002,538.284,0.0
53527.0,STARLINK-4511,PAYLOAD,2023-01-08 13:19:48,15.08844861,0.0002122,53.2142,224.2028,44.3952,315.721,0.0005027,7.723e-05,0.0,0 STARLINK-4511,1 53527U 22101A   23008.55541955  .00007723  00000-0  50270-3 0  9996,2 53527  53.2142 224.2028 0002122  44.3952 315.7210 15.08844861 21620,6917.866,95.437,541.1990000000002,538.263,0.0
53527.0,STARLINK-4511,PAYLOAD,2023-01-08 21:16:43,15.08856227,0.0002122,53.214,222.716,44.8641,315.2522,0.00061379,9.498e-05,0.0,0 STARLINK-4511,1 53527U 22101A   23008.88661560  .00009498  00000-0  61379-3 0  9990,2 53527  53.2140 222.7160 0002122  44.8641 315.2522 15.08856227 21673,6917.831,95.437,541.164,538.2280000000002,0.0
53527.0,STARLINK-4511,PAYLOAD,2023-01-09 06:49:01,15.08863436,0.0002133,53.2139,220.9318,45.1519,314.9646,0.00057306,8.85e-05,0.0,0 STARLINK-4511,1 53527U 22101A   23009.28404982  .00008850  00000-0  57306-3 0  9994,2 53527  53.2139 220.9318 0002133  45.1519 314.9646 15.08863436 21736,6917.809,95.436,541.149,538.198,0.0
53527.0,STARLINK-4511,PAYLOAD,2023-01-10 00:18:16,15.08845774,0.0002158,53.2133,217.6605,45.8917,314.2252,6.4968e-05,7.46e-06,0.0,0 STARLINK-4511,1 53527U 22101A   23010.01269280  .00000746  00000-0  64968-4 0  9996,2 53527  53.2133 217.6605 0002158  45.8917 314.2252 15.08845774 21841,6917.863,95.437,541.221,538.235,0.0
